{"fetched_at":"2026-03-30T06:02:59Z","count":15439,"tles":[{"name":"STARLINK-5040","line1":"1 53914U 22119AE  26087.81989097 -.00003323  00000+0 -19075-3 0  9998","line2":"2 53914  53.2160 228.1907 0003150 115.1637 244.9682 15.08832661194710","category":"Starlink"}]}