{
  "norad_id": 53914,
  "name": "STARLINK-5040",
  "history": [
    {
      "epoch": "2026-03-28T19:40:38.579808Z",
      "apogee_km": 541.9453067259137,
      "perigee_km": 537.5863361581241,
      "latitude_deg": -1.014836625213496e-05,
      "longitude_deg": 106.79508594314586,
      "height_km": 541.585869779981,
      "semi_major_axis_km": 6917.902821442019,
      "eccentricity": 0.00031505,
      "inclination_deg": 53.216,
      "raan_deg": 228.1907,
      "arg_perigee_deg": 115.1637,
      "mean_anomaly_deg": 244.9682,
      "mean_motion_rev_day": 15.08832661
    }
  ]
}